ONEWEB-0228             
1 48780U 21045P   24064.95608078  .00000005  00000+0 -21061-4 0  9997
2 48780  87.8948  65.2084 0001967  84.6727 275.4628 13.15549767134645
